OBJECT_NAME,OBJECT_ID,EPOCH,MEAN_MOTION,ECCENTRICITY,INCLINATION,RA_OF_ASC_NODE,ARG_OF_PERICENTER,MEAN_ANOMALY,EPHEMERIS_TYPE,CLASSIFICATION_TYPE,NORAD_CAT_ID,ELEMENT_SET_NO,REV_AT_EPOCH,BSTAR,MEAN_MOTION_DOT,MEAN_MOTION_DDOT
PROBA-1,2001-049B,2026-06-07T20:15:03.660768,15.07453297,.0055488,97.9600,167.0502,153.1269,207.2851,0,U,26958,999,34221,.16629E-3,.2538E-4,0
CUTE-1 (CO-55),2003-031E,2026-06-07T13:17:17.443968,14.24330103,.0008903,98.6735,167.2337,206.8932,153.1787,0,U,27844,999,19030,.16747E-3,.343E-5,0
CUBESAT XI-IV (CO-57),2003-031J,2026-06-07T12:53:42.938592,14.23615889,.0008497,98.6767,166.9379,227.1745,132.8720,0,U,27848,999,19000,.14824E-3,.294E-5,0
APRIZESAT 4,2009-041D,2026-06-07T17:58:47.341056,14.83867367,.0043077,98.1412,233.8815,354.0922,5.9777,0,U,35684,999,90996,.99447E-4,.779E-5,0
APRIZESAT 3,2009-041F,2026-06-07T16:04:04.633248,14.96214927,.0062789,98.2056,311.4387,98.3314,262.5031,0,U,35686,999,91495,.1374E-3,.1544E-4,0
PROBA-2,2009-059B,2026-06-07T17:59:11.364576,14.54858610,.0012279,98.2451,342.2333,314.0742,45.9444,0,U,36037,999,88015,.65847E-4,.237E-5,0
APRIZESAT 5,2011-044E,2026-06-07T18:02:19.224096,14.81055962,.0053059,98.2452,91.5248,34.3903,326.0724,0,U,37792,999,79739,.1732E-3,.1317E-4,0
APRIZESAT 6,2011-044F,2026-06-07T17:28:54.077088,14.76902825,.0044315,98.2371,69.0347,115.4190,299.5198,0,U,37793,999,79575,.13284E-3,.893E-5,0
PROBA-V,2013-021A,2026-06-07T16:49:25.610304,14.23595027,.0004696,98.3579,137.7762,146.4543,213.6935,0,U,39159,999,67976,.59063E-4,.94E-6,0
APRIZESAT 7,2013-066A,2026-06-07T18:17:12.685632,14.91545656,.003442,97.7703,112.1175,241.5439,118.2311,0,U,39416,999,67982,.15148E-3,.1477E-4,0
APRIZESAT 8,2013-066K,2026-06-07T14:10:03.158112,14.87634752,.0044911,97.8217,106.1924,319.0806,40.7042,0,U,39425,999,67824,.14675E-3,.1301E-4,0
BUGSAT-1 (TITA),2014-033E,2026-06-07T20:36:38.586816,15.15484612,.0027374,98.0419,250.8627,210.5403,149.4235,0,U,40014,999,65442,.29601E-3,.5579E-4,0
SAUDISAT 4,2014-033G,2026-06-07T15:36:57.432672,14.79532151,.0046205,97.7573,305.1161,104.0362,256.5993,0,U,40016,999,64466,.12584E-3,.907E-5,0
APRIZESAT 9,2014-033J,2026-06-07T15:17:41.864640,14.74202452,.0065063,97.9049,292.0700,230.2221,129.3247,0,U,40018,999,64215,.12323E-3,.788E-5,0
APRIZESAT 10,2014-033K,2026-06-07T14:28:03.290304,14.70874696,.0077646,97.9639,285.7766,304.9814,54.4119,0,U,40019,999,64084,.88822E-4,.515E-5,0
TECHDEMOSAT-1 (TDS-1),2014-037H,2026-06-07T16:51:48.408768,15.13155751,.0004651,98.3816,149.9769,310.3398,49.7424,0,U,40076,999,64679,.51995E-3,.9149E-4,0
TECHNOSAT,2017-042E,2026-06-07T16:11:31.085376,15.04898031,.0018897,97.4269,316.6964,124.1453,236.1569,0,U,42829,999,48527,.23914E-3,.3338E-4,0
FLYING LAPTOP,2017-042G,2026-06-07T20:28:41.610432,15.01086338,.0019102,97.4657,314.7486,152.1285,208.0967,0,U,42831,999,48505,.33092E-3,.4192E-4,0
HAWK-A,2018-099H,2026-06-07T16:48:00.273024,15.24531977,.003362,97.3915,211.0600,320.8712,39.0094,0,U,43765,999,41165,.2934E-3,.7262E-4,0
HAWK-B,2018-099AN,2026-06-07T17:02:46.591872,15.22722207,.0031268,97.3966,210.5050,339.5782,20.4202,0,U,43794,999,41159,.29035E-3,.6792E-4,0
HAWK-C,2018-099AT,2026-06-07T16:45:02.917152,15.27971141,.0039257,97.3892,211.9241,320.7592,39.0803,0,U,43799,999,41246,.31112E-3,.861E-4,0
SALSAT,2020-068K,2026-06-07T17:25:36.863040,15.29663376,.0008931,97.8853,161.2159,346.1637,13.9356,0,U,46495,999,31391,.29512E-3,.8408E-4,0
HAWK-2C,2021-006CT,2026-06-07T15:10:25.622400,15.34548945,.0005627,97.2283,203.1334,222.2531,137.8280,0,U,47502,999,29803,.20774E-3,.6878E-4,0
HAWK-2A,2021-006CW,2026-06-07T16:48:03.018816,15.34564879,.0005074,97.2323,203.8720,226.4875,133.5947,0,U,47505,999,29804,.20926E-3,.6932E-4,0
HAWK-2B,2021-006CZ,2026-06-07T16:42:20.301120,15.34637721,.0005609,97.2195,202.2152,223.8783,136.2016,0,U,47508,999,29804,.23273E-3,.7738E-4,0
HAWK-3B,2021-059BE,2026-06-07T12:05:14.071776,15.68737602,.0003984,97.6670,354.3021,16.1749,343.9638,0,U,48931,999,27633,.3749E-3,.42746E-3,0
HAWK-3C,2021-059BX,2026-06-07T12:04:46.446240,15.68742614,.0004427,97.6800,359.9702,15.4043,344.7352,0,U,48948,999,27633,.35937E-3,.40974E-3,0
HAWK-3A,2021-059CG,2026-06-07T19:43:53.904288,15.68764094,.0004397,97.6737,357.5325,16.7182,343.4223,0,U,48957,999,27638,.35695E-3,.40732E-3,0
HAWK-5C,2022-057Y,2026-06-07T16:34:25.069152,15.51057015,.0005395,97.6587,317.7486,110.7945,249.3884,0,U,52754,999,22487,.34119E-3,.19779E-3,0
HAWK-5B,2022-057AA,2026-06-07T10:22:36.156288,15.51047228,.0006013,97.6597,315.8230,104.0020,256.1900,0,U,52756,999,22483,.33138E-3,.19202E-3,0
HAWK-5A,2022-057AB,2026-06-07T10:22:16.425984,15.51042841,.0005977,97.6598,316.6542,107.7377,252.4527,0,U,52757,999,22483,.32834E-3,.19021E-3,0
