PROBA-1                 
1 26958U 01049B   26158.84379237  .00002538  00000+0  16629-3 0  9993
2 26958  97.9600 167.0502 0055488 153.1269 207.2851 15.07453297342211
CUTE-1 (CO-55)          
1 27844U 03031E   26158.55367412  .00000343  00000+0  16747-3 0  9994
2 27844  98.6735 167.2337 0008903 206.8932 153.1787 14.24330103190300
CUBESAT XI-IV (CO-57)   
1 27848U 03031J   26158.53730253  .00000294  00000+0  14824-3 0  9992
2 27848  98.6767 166.9379 0008497 227.1745 132.8720 14.23615889190001
APRIZESAT 4             
1 35684U 09041D   26158.74915904  .00000779  00000+0  99447-4 0  9990
2 35684  98.1412 233.8815 0043077 354.0922   5.9777 14.83867367909960
APRIZESAT 3             
1 35686U 09041F   26158.66949807  .00001544  00000+0  13740-3 0  9994
2 35686  98.2056 311.4387 0062789  98.3314 262.5031 14.96214927914959
PROBA-2                 
1 36037U 09059B   26158.74943709  .00000237  00000+0  65847-4 0  9992
2 36037  98.2451 342.2333 0012279 314.0742  45.9444 14.54858610880156
APRIZESAT 5             
1 37792U 11044E   26158.75161139  .00001317  00000+0  17320-3 0  9990
2 37792  98.2452  91.5248 0053059  34.3903 326.0724 14.81055962797393
APRIZESAT 6             
1 37793U 11044F   26158.72840367  .00000893  00000+0  13284-3 0  9998
2 37793  98.2371  69.0347 0044315 115.4190 299.5198 14.76902825795758
PROBA-V                 
1 39159U 13021A   26158.70099086  .00000094  00000+0  59063-4 0  9994
2 39159  98.3579 137.7762 0004696 146.4543 213.6935 14.23595027679767
APRIZESAT 7             
1 39416U 13066A   26158.76195238  .00001477  00000+0  15148-3 0  9992
2 39416  97.7703 112.1175 0034420 241.5439 118.2311 14.91545656679822
APRIZESAT 8             
1 39425U 13066K   26158.59031433  .00001301  00000+0  14675-3 0  9999
2 39425  97.8217 106.1924 0044911 319.0806  40.7042 14.87634752678249
BUGSAT-1 (TITA)         
1 40014U 14033E   26158.85877994  .00005579  00000+0  29601-3 0  9995
2 40014  98.0419 250.8627 0027374 210.5403 149.4235 15.15484612654426
SAUDISAT 4              
1 40016U 14033G   26158.65066473  .00000907  00000+0  12584-3 0  9999
2 40016  97.7573 305.1161 0046205 104.0362 256.5993 14.79532151644664
APRIZESAT 9             
1 40018U 14033J   26158.63729010  .00000788  00000+0  12323-3 0  9990
2 40018  97.9049 292.0700 0065063 230.2221 129.3247 14.74202452642152
APRIZESAT 10            
1 40019U 14033K   26158.60281586  .00000515  00000+0  88822-4 0  9995
2 40019  97.9639 285.7766 0077646 304.9814  54.4119 14.70874696640847
TECHDEMOSAT-1 (TDS-1)   
1 40076U 14037H   26158.70264362  .00009149  00000+0  51995-3 0  9998
2 40076  98.3816 149.9769 0004651 310.3398  49.7424 15.13155751646798
TECHNOSAT               
1 42829U 17042E   26158.67466534  .00003338  00000+0  23914-3 0  9990
2 42829  97.4269 316.6964 0018897 124.1453 236.1569 15.04898031485279
FLYING LAPTOP           
1 42831U 17042G   26158.85325938  .00004192  00000+0  33092-3 0  9992
2 42831  97.4657 314.7486 0019102 152.1285 208.0967 15.01086338485057
HAWK-A                  
1 43765U 18099H   26158.70000316  .00007262  00000+0  29340-3 0  9998
2 43765  97.3915 211.0600 0033620 320.8712  39.0094 15.24531977411654
HAWK-B                  
1 43794U 18099AN  26158.71026148  .00006792  00000+0  29035-3 0  9990
2 43794  97.3966 210.5050 0031268 339.5782  20.4202 15.22722207411599
HAWK-C                  
1 43799U 18099AT  26158.69795043  .00008610  00000+0  31112-3 0  9999
2 43799  97.3892 211.9241 0039257 320.7592  39.0803 15.27971141412464
SALSAT                  
1 46495U 20068K   26158.72612110  .00008408  00000+0  29512-3 0  9997
2 46495  97.8853 161.2159 0008931 346.1637  13.9356 15.29663376313918
HAWK-2C                 
1 47502U 21006CT  26158.63224100  .00006878  00000+0  20774-3 0  9998
2 47502  97.2283 203.1334 0005627 222.2531 137.8280 15.34548945298033
HAWK-2A                 
1 47505U 21006CW  26158.70003494  .00006932  00000+0  20926-3 0  9990
2 47505  97.2323 203.8720 0005074 226.4875 133.5947 15.34564879298048
HAWK-2B                 
1 47508U 21006CZ  26158.69606830  .00007738  00000+0  23273-3 0  9997
2 47508  97.2195 202.2152 0005609 223.8783 136.2016 15.34637721298047
HAWK-3B                 
1 48931U 21059BE  26158.50363509  .00042746  00000+0  37490-3 0  9993
2 48931  97.6670 354.3021 0003984  16.1749 343.9638 15.68737602276334
HAWK-3C                 
1 48948U 21059BX  26158.50331535  .00040974  00000+0  35937-3 0  9990
2 48948  97.6800 359.9702 0004427  15.4043 344.7352 15.68742614276337
HAWK-3A                 
1 48957U 21059CG  26158.82215167  .00040732  00000+0  35695-3 0  9990
2 48957  97.6737 357.5325 0004397  16.7182 343.4223 15.68764094276389
HAWK-5C                 
1 52754U 22057Y   26158.69056793  .00019779  00000+0  34119-3 0  9999
2 52754  97.6587 317.7486 0005395 110.7945 249.3884 15.51057015224873
HAWK-5B                 
1 52756U 22057AA  26158.43236292  .00019202  00000+0  33138-3 0  9998
2 52756  97.6597 315.8230 0006013 104.0020 256.1900 15.51047228224836
HAWK-5A                 
1 52757U 22057AB  26158.43213456  .00019021  00000+0  32834-3 0  9997
2 52757  97.6598 316.6542 0005977 107.7377 252.4527 15.51042841224836
